{
  "type": "FeatureCollection",
  "features": [
    {
      "type": "Feature",
      "properties": {
        "norad_id": 34492,
        "name": "IRIDIUM 33 DEB",
        "group": "iridium-33-debris",
        "lat": -15.746513926453357,
        "lon": 156.85139647041154,
        "alt_km": 726.5417577531925,
        "timestamp": "2025-12-09T16:56:36.959283+00:00",
        "meta_object_name": "IRIDIUM 33 DEB",
        "meta_object_id": "1997-051GH",
        "meta_epoch": "2025-12-09T11:35:07.822752",
        "meta_mean_motion": 14.25591238,
        "meta_eccentricity": 0.0189465,
        "meta_inclination": 86.4738,
        "meta_ra_of_asc_node": 335.9453,
        "meta_arg_of_pericenter": 248.7156,
        "meta_mean_anomaly": 243.5947,
        "meta_ephemeris_type": 0,
        "meta_classification_type": "U",
        "meta_norad_cat_id": 34492,
        "meta_element_set_no": 999,
        "meta_rev_at_epoch": 85012,
        "meta_bstar": 0.007539,
        "meta_mean_motion_dot": 0.00021601,
        "meta_mean_motion_ddot": 0,
        "tle_line1": "1 34492U 97051GH  25343.48272943  .00021601  00000+0  75390-2 0  9995",
        "tle_line2": "2 34492  86.4738 335.9453 0189465 248.7156 243.5947 14.25591238850128"
      },
      "geometry": {
        "type": "Point",
        "coordinates": [
          156.85139647041154,
          -15.746513926453357
        ]
      }
    },
    {
      "type": "Feature",
      "properties": {
        "norad_id": 34497,
        "name": "IRIDIUM 33 DEB",
        "group": "iridium-33-debris",
        "lat": 56.87220712996751,
        "lon": 59.422336831978726,
        "alt_km": 772.9075687867326,
        "timestamp": "2025-12-09T16:56:36.959293+00:00",
        "meta_object_name": "IRIDIUM 33 DEB",
        "meta_object_id": "1997-051GN",
        "meta_epoch": "2025-12-09T05:09:24.196032",
        "meta_mean_motion": 14.27438084,
        "meta_eccentricity": 0.0079165,
        "meta_inclination": 86.2781,
        "meta_ra_of_asc_node": 53.9075,
        "meta_arg_of_pericenter": 351.0726,
        "meta_mean_anomaly": 63.0332,
        "meta_ephemeris_type": 0,
        "meta_classification_type": "U",
        "meta_norad_cat_id": 34497,
        "meta_element_set_no": 999,
        "meta_rev_at_epoch": 86833,
        "meta_bstar": 0.0009704,
        "meta_mean_motion_dot": 2.479e-05,
        "meta_mean_motion_ddot": 0,
        "tle_line1": "1 34497U 97051GN  25343.21486338  .00002479  00000+0  97040-3 0  9995",
        "tle_line2": "2 34497  86.2781  53.9075 0079165 351.0726  63.0332 14.27438084868338"
      },
      "geometry": {
        "type": "Point",
        "coordinates": [
          59.422336831978726,
          56.87220712996751
        ]
      }
    },
    {
      "type": "Feature",
      "properties": {
        "norad_id": 34508,
        "name": "IRIDIUM 33 DEB",
        "group": "iridium-33-debris",
        "lat": 84.55305281404401,
        "lon": -117.80709919435077,
        "alt_km": 754.9749368321754,
        "timestamp": "2025-12-09T16:56:36.959303+00:00",
        "meta_object_name": "IRIDIUM 33 DEB",
        "meta_object_id": "1997-051GZ",
        "meta_epoch": "2025-12-09T08:09:22.353120",
        "meta_mean_motion": 14.38378471,
        "meta_eccentricity": 0.0065912,
        "meta_inclination": 86.3702,
        "meta_ra_of_asc_node": 104.0845,
        "meta_arg_of_pericenter": 183.8965,
        "meta_mean_anomaly": 176.1729,
        "meta_ephemeris_type": 0,
        "meta_classification_type": "U",
        "meta_norad_cat_id": 34508,
        "meta_element_set_no": 999,
        "meta_rev_at_epoch": 87260,
        "meta_bstar": 0.002305,
        "meta_mean_motion_dot": 7.224e-05,
        "meta_mean_motion_ddot": 0,
        "tle_line1": "1 34508U 97051GZ  25343.33984205  .00007224  00000+0  23050-2 0  9999",
        "tle_line2": "2 34508  86.3702 104.0845 0065912 183.8965 176.1729 14.38378471872605"
      },
      "geometry": {
        "type": "Point",
        "coordinates": [
          -117.80709919435077,
          84.55305281404401
        ]
      }
    },
    {
      "type": "Feature",
      "properties": {
        "norad_id": 34521,
        "name": "IRIDIUM 33 DEB",
        "group": "iridium-33-debris",
        "lat": 0.4913552653564957,
        "lon": 31.91450198701591,
        "alt_km": 685.9701786913865,
        "timestamp": "2025-12-09T16:56:36.959314+00:00",
        "meta_object_name": "IRIDIUM 33 DEB",
        "meta_object_id": "1997-051HN",
        "meta_epoch": "2025-12-09T10:22:36.054336",
        "meta_mean_motion": 14.63320774,
        "meta_eccentricity": 0.0001233,
        "meta_inclination": 86.3799,
        "meta_ra_of_asc_node": 32.0038,
        "meta_arg_of_pericenter": 237.8673,
        "meta_mean_anomaly": 122.2419,
        "meta_ephemeris_type": 0,
        "meta_classification_type": "U",
        "meta_norad_cat_id": 34521,
        "meta_element_set_no": 999,
        "meta_rev_at_epoch": 88424,
        "meta_bstar": 0.0013249,
        "meta_mean_motion_dot": 6.86e-05,
        "meta_mean_motion_ddot": 0,
        "tle_line1": "1 34521U 97051HN  25343.43236174  .00006860  00000+0  13249-2 0  9994",
        "tle_line2": "2 34521  86.3799  32.0038 0001233 237.8673 122.2419 14.63320774884244"
      },
      "geometry": {
        "type": "Point",
        "coordinates": [
          31.91450198701591,
          0.4913552653564957
        ]
      }
    },
    {
      "type": "Feature",
      "properties": {
        "norad_id": 34525,
        "name": "IRIDIUM 33 DEB",
        "group": "iridium-33-debris",
        "lat": 42.34687151156798,
        "lon": 51.45280478073696,
        "alt_km": 743.1551428072908,
        "timestamp": "2025-12-09T16:56:36.959324+00:00",
        "meta_object_name": "IRIDIUM 33 DEB",
        "meta_object_id": "1997-051HS",
        "meta_epoch": "2025-12-09T10:09:25.064064",
        "meta_mean_motion": 14.42893989,
        "meta_eccentricity": 0.0006655,
        "meta_inclination": 86.3729,
        "meta_ra_of_asc_node": 48.2592,
        "meta_arg_of_pericenter": 102.8665,
        "meta_mean_anomaly": 271.8086,
        "meta_ephemeris_type": 0,
        "meta_classification_type": "U",
        "meta_norad_cat_id": 34525,
        "meta_element_set_no": 999,
        "meta_rev_at_epoch": 88040,
        "meta_bstar": 0.00064314,
        "meta_mean_motion_dot": 2.167e-05,
        "meta_mean_motion_ddot": 0,
        "tle_line1": "1 34525U 97051HS  25343.42320676  .00002167  00000+0  64314-3 0  9994",
        "tle_line2": "2 34525  86.3729  48.2592 0006655 102.8665 271.8086 14.42893989880405"
      },
      "geometry": {
        "type": "Point",
        "coordinates": [
          51.45280478073696,
          42.34687151156798
        ]
      }
    },
    {
      "type": "Feature",
      "properties": {
        "norad_id": 34529,
        "name": "IRIDIUM 33 DEB",
        "group": "iridium-33-debris",
        "lat": -37.648177552945015,
        "lon": 33.89374853278311,
        "alt_km": 765.1503672392109,
        "timestamp": "2025-12-09T16:56:36.959334+00:00",
        "meta_object_name": "IRIDIUM 33 DEB",
        "meta_object_id": "1997-051HW",
        "meta_epoch": "2025-12-09T03:46:56.686656",
        "meta_mean_motion": 14.40611183,
        "meta_eccentricity": 0.00043514,
        "meta_inclination": 86.3644,
        "meta_ra_of_asc_node": 36.9388,
        "meta_arg_of_pericenter": 189.2574,
        "meta_mean_anomaly": 170.8546,
        "meta_ephemeris_type": 0,
        "meta_classification_type": "U",
        "meta_norad_cat_id": 34529,
        "meta_element_set_no": 999,
        "meta_rev_at_epoch": 88090,
        "meta_bstar": 0.00017454195,
        "meta_mean_motion_dot": 5.76e-06,
        "meta_mean_motion_ddot": 0,
        "tle_line1": "1 34529U 97051HW  25343.15760054  .00000576  00000+0  17454-3 0  9991",
        "tle_line2": "2 34529  86.3644  36.9388 0004351 189.2574 170.8546 14.40611183880907"
      },
      "geometry": {
        "type": "Point",
        "coordinates": [
          33.89374853278311,
          -37.648177552945015
        ]
      }
    },
    {
      "type": "Feature",
      "properties": {
        "norad_id": 34538,
        "name": "IRIDIUM 33 DEB",
        "group": "iridium-33-debris",
        "lat": 42.29243564728964,
        "lon": -176.51058957361835,
        "alt_km": 768.591591880132,
        "timestamp": "2025-12-09T16:56:36.959345+00:00",
        "meta_object_name": "IRIDIUM 33 DEB",
        "meta_object_id": "1997-051JF",
        "meta_epoch": "2025-12-09T06:51:33.177024",
        "meta_mean_motion": 14.42616834,
        "meta_eccentricity": 0.0033201,
        "meta_inclination": 86.2773,
        "meta_ra_of_asc_node": 7.0688,
        "meta_arg_of_pericenter": 339.7636,
        "meta_mean_anomaly": 136.8152,
        "meta_ephemeris_type": 0,
        "meta_classification_type": "U",
        "meta_norad_cat_id": 34538,
        "meta_element_set_no": 999,
        "meta_rev_at_epoch": 87706,
        "meta_bstar": 0.0014099,
        "meta_mean_motion_dot": 4.732e-05,
        "meta_mean_motion_ddot": 0,
        "tle_line1": "1 34538U 97051JF  25343.28580066  .00004732  00000+0  14099-2 0  9997",
        "tle_line2": "2 34538  86.2773   7.0688 0033201 339.7636 136.8152 14.42616834877066"
      },
      "geometry": {
        "type": "Point",
        "coordinates": [
          -176.51058957361835,
          42.29243564728964
        ]
      }
    }
  ]
}